<?xml version="1.0" encoding="UTF-8"?>
<ndm xmlns:xsi="http://www.w3.org/2001/XMLSchema-instance" xsi:noNamespaceSchemaLocation="https://sanaregistry.org/r/ndmxml_unqualified/ndmxml-2.0.0-master-2.0.xsd">
<omm id="CCSDS_OMM_VERS" version="2.0">
<header><CREATION_DATE/><ORIGINATOR/></header><body><segment><metadata><OBJECT_NAME>ORBCOMM FM33 [-]</OBJECT_NAME><OBJECT_ID>1999-065D</OBJECT_ID><CENTER_NAME>EARTH</CENTER_NAME><REF_FRAME>TEME</REF_FRAME><TIME_SYSTEM>UTC</TIME_SYSTEM><MEAN_ELEMENT_THEORY>SGP4</MEAN_ELEMENT_THEORY></metadata><data><meanElements><EPOCH>2023-11-09T04:12:06.156864</EPOCH><MEAN_MOTION>14.36957527</MEAN_MOTION><ECCENTRICITY>.0009902</ECCENTRICITY><INCLINATION>45.0289</INCLINATION><RA_OF_ASC_NODE>257.7840</RA_OF_ASC_NODE><ARG_OF_PERICENTER>350.1070</ARG_OF_PERICENTER><MEAN_ANOMALY>25.5105</MEAN_ANOMALY></meanElements><tleParameters><EPHEMERIS_TYPE>0</EPHEMERIS_TYPE><CLASSIFICATION_TYPE>U</CLASSIFICATION_TYPE><NORAD_CAT_ID>25983</NORAD_CAT_ID><ELEMENT_SET_NO>999</ELEMENT_SET_NO><REV_AT_EPOCH>25177</REV_AT_EPOCH><BSTAR>.74434E-3</BSTAR><MEAN_MOTION_DOT>.2084E-4</MEAN_MOTION_DOT><MEAN_MOTION_DDOT>0</MEAN_MOTION_DDOT></tleParameters></data></segment></body></omm>
<omm id="CCSDS_OMM_VERS" version="2.0">
<header><CREATION_DATE/><ORIGINATOR/></header><body><segment><metadata><OBJECT_NAME>ORBCOMM FM35 [+]</OBJECT_NAME><OBJECT_ID>1999-065F</OBJECT_ID><CENTER_NAME>EARTH</CENTER_NAME><REF_FRAME>TEME</REF_FRAME><TIME_SYSTEM>UTC</TIME_SYSTEM><MEAN_ELEMENT_THEORY>SGP4</MEAN_ELEMENT_THEORY></metadata><data><meanElements><EPOCH>2023-11-08T19:06:17.785152</EPOCH><MEAN_MOTION>14.34510285</MEAN_MOTION><ECCENTRICITY>.0003893</ECCENTRICITY><INCLINATION>45.0411</INCLINATION><RA_OF_ASC_NODE>344.0561</RA_OF_ASC_NODE><ARG_OF_PERICENTER>313.4403</ARG_OF_PERICENTER><MEAN_ANOMALY>46.6121</MEAN_ANOMALY></meanElements><tleParameters><EPHEMERIS_TYPE>0</EPHEMERIS_TYPE><CLASSIFICATION_TYPE>U</CLASSIFICATION_TYPE><NORAD_CAT_ID>25985</NORAD_CAT_ID><ELEMENT_SET_NO>999</ELEMENT_SET_NO><REV_AT_EPOCH>25051</REV_AT_EPOCH><BSTAR>.68676E-3</BSTAR><MEAN_MOTION_DOT>.1814E-4</MEAN_MOTION_DOT><MEAN_MOTION_DDOT>0</MEAN_MOTION_DDOT></tleParameters></data></segment></body></omm>
<omm id="CCSDS_OMM_VERS" version="2.0">
<header><CREATION_DATE/><ORIGINATOR/></header><body><segment><metadata><OBJECT_NAME>ORBCOMM FM34 [-]</OBJECT_NAME><OBJECT_ID>1999-065G</OBJECT_ID><CENTER_NAME>EARTH</CENTER_NAME><REF_FRAME>TEME</REF_FRAME><TIME_SYSTEM>UTC</TIME_SYSTEM><MEAN_ELEMENT_THEORY>SGP4</MEAN_ELEMENT_THEORY></metadata><data><meanElements><EPOCH>2023-11-08T19:56:09.715200</EPOCH><MEAN_MOTION>14.34462115</MEAN_MOTION><ECCENTRICITY>.0005575</ECCENTRICITY><INCLINATION>45.0406</INCLINATION><RA_OF_ASC_NODE>344.3754</RA_OF_ASC_NODE><ARG_OF_PERICENTER>277.6868</ARG_OF_PERICENTER><MEAN_ANOMALY>82.3346</MEAN_ANOMALY></meanElements><tleParameters><EPHEMERIS_TYPE>0</EPHEMERIS_TYPE><CLASSIFICATION_TYPE>U</CLASSIFICATION_TYPE><NORAD_CAT_ID>25986</NORAD_CAT_ID><ELEMENT_SET_NO>999</ELEMENT_SET_NO><REV_AT_EPOCH>25063</REV_AT_EPOCH><BSTAR>.72347E-3</BSTAR><MEAN_MOTION_DOT>.1916E-4</MEAN_MOTION_DOT><MEAN_MOTION_DDOT>0</MEAN_MOTION_DDOT></tleParameters></data></segment></body></omm>
<omm id="CCSDS_OMM_VERS" version="2.0">
<header><CREATION_DATE/><ORIGINATOR/></header><body><segment><metadata><OBJECT_NAME>ORBCOMM FM38 [-]</OBJECT_NAME><OBJECT_ID>2008-031A</OBJECT_ID><CENTER_NAME>EARTH</CENTER_NAME><REF_FRAME>TEME</REF_FRAME><TIME_SYSTEM>UTC</TIME_SYSTEM><MEAN_ELEMENT_THEORY>SGP4</MEAN_ELEMENT_THEORY></metadata><data><meanElements><EPOCH>2023-11-09T00:28:16.374144</EPOCH><MEAN_MOTION>14.76375485</MEAN_MOTION><ECCENTRICITY>.0005281</ECCENTRICITY><INCLINATION>48.4409</INCLINATION><RA_OF_ASC_NODE>217.1359</RA_OF_ASC_NODE><ARG_OF_PERICENTER>48.0517</ARG_OF_PERICENTER><MEAN_ANOMALY>312.0846</MEAN_ANOMALY></meanElements><tleParameters><EPHEMERIS_TYPE>0</EPHEMERIS_TYPE><CLASSIFICATION_TYPE>U</CLASSIFICATION_TYPE><NORAD_CAT_ID>33060</NORAD_CAT_ID><ELEMENT_SET_NO>999</ELEMENT_SET_NO><REV_AT_EPOCH>82799</REV_AT_EPOCH><BSTAR>.49903E-3</BSTAR><MEAN_MOTION_DOT>.3298E-4</MEAN_MOTION_DOT><MEAN_MOTION_DDOT>0</MEAN_MOTION_DDOT></tleParameters></data></segment></body></omm>
<omm id="CCSDS_OMM_VERS" version="2.0">
<header><CREATION_DATE/><ORIGINATOR/></header><body><segment><metadata><OBJECT_NAME>ORBCOMM FM41 [-]</OBJECT_NAME><OBJECT_ID>2008-031B</OBJECT_ID><CENTER_NAME>EARTH</CENTER_NAME><REF_FRAME>TEME</REF_FRAME><TIME_SYSTEM>UTC</TIME_SYSTEM><MEAN_ELEMENT_THEORY>SGP4</MEAN_ELEMENT_THEORY></metadata><data><meanElements><EPOCH>2023-11-08T22:05:18.825792</EPOCH><MEAN_MOTION>14.76135121</MEAN_MOTION><ECCENTRICITY>.0004482</ECCENTRICITY><INCLINATION>48.4445</INCLINATION><RA_OF_ASC_NODE>223.8118</RA_OF_ASC_NODE><ARG_OF_PERICENTER>32.5978</ARG_OF_PERICENTER><MEAN_ANOMALY>87.6286</MEAN_ANOMALY></meanElements><tleParameters><EPHEMERIS_TYPE>0</EPHEMERIS_TYPE><CLASSIFICATION_TYPE>U</CLASSIFICATION_TYPE><NORAD_CAT_ID>33061</NORAD_CAT_ID><ELEMENT_SET_NO>999</ELEMENT_SET_NO><REV_AT_EPOCH>82749</REV_AT_EPOCH><BSTAR>.5007E-3</BSTAR><MEAN_MOTION_DOT>.3291E-4</MEAN_MOTION_DOT><MEAN_MOTION_DDOT>0</MEAN_MOTION_DDOT></tleParameters></data></segment></body></omm>
<omm id="CCSDS_OMM_VERS" version="2.0">
<header><CREATION_DATE/><ORIGINATOR/></header><body><segment><metadata><OBJECT_NAME>ORBCOMM FM29 [-]</OBJECT_NAME><OBJECT_ID>2008-031C</OBJECT_ID><CENTER_NAME>EARTH</CENTER_NAME><REF_FRAME>TEME</REF_FRAME><TIME_SYSTEM>UTC</TIME_SYSTEM><MEAN_ELEMENT_THEORY>SGP4</MEAN_ELEMENT_THEORY></metadata><data><meanElements><EPOCH>2023-11-09T01:55:41.905632</EPOCH><MEAN_MOTION>14.76017223</MEAN_MOTION><ECCENTRICITY>.0006417</ECCENTRICITY><INCLINATION>48.4397</INCLINATION><RA_OF_ASC_NODE>231.0466</RA_OF_ASC_NODE><ARG_OF_PERICENTER>32.0164</ARG_OF_PERICENTER><MEAN_ANOMALY>341.7670</MEAN_ANOMALY></meanElements><tleParameters><EPHEMERIS_TYPE>0</EPHEMERIS_TYPE><CLASSIFICATION_TYPE>U</CLASSIFICATION_TYPE><NORAD_CAT_ID>33062</NORAD_CAT_ID><ELEMENT_SET_NO>999</ELEMENT_SET_NO><REV_AT_EPOCH>82782</REV_AT_EPOCH><BSTAR>.50508E-3</BSTAR><MEAN_MOTION_DOT>.3312E-4</MEAN_MOTION_DOT><MEAN_MOTION_DDOT>0</MEAN_MOTION_DDOT></tleParameters></data></segment></body></omm>
<omm id="CCSDS_OMM_VERS" version="2.0">
<header><CREATION_DATE/><ORIGINATOR/></header><body><segment><metadata><OBJECT_NAME>ORBCOMM FM39 [-]</OBJECT_NAME><OBJECT_ID>2008-031D</OBJECT_ID><CENTER_NAME>EARTH</CENTER_NAME><REF_FRAME>TEME</REF_FRAME><TIME_SYSTEM>UTC</TIME_SYSTEM><MEAN_ELEMENT_THEORY>SGP4</MEAN_ELEMENT_THEORY></metadata><data><meanElements><EPOCH>2023-11-08T06:01:51.712608</EPOCH><MEAN_MOTION>14.75154865</MEAN_MOTION><ECCENTRICITY>.0007539</ECCENTRICITY><INCLINATION>48.4406</INCLINATION><RA_OF_ASC_NODE>254.1967</RA_OF_ASC_NODE><ARG_OF_PERICENTER>4.1578</ARG_OF_PERICENTER><MEAN_ANOMALY>355.9397</MEAN_ANOMALY></meanElements><tleParameters><EPHEMERIS_TYPE>0</EPHEMERIS_TYPE><CLASSIFICATION_TYPE>U</CLASSIFICATION_TYPE><NORAD_CAT_ID>33063</NORAD_CAT_ID><ELEMENT_SET_NO>999</ELEMENT_SET_NO><REV_AT_EPOCH>82702</REV_AT_EPOCH><BSTAR>.58459E-3</BSTAR><MEAN_MOTION_DOT>.3787E-4</MEAN_MOTION_DOT><MEAN_MOTION_DDOT>0</MEAN_MOTION_DDOT></tleParameters></data></segment></body></omm>

</ndm>
