ORBCOMM FM33 [-]        
1 25983U 99065D   23313.17507126  .00002084  00000+0  74434-3 0  9995
2 25983  45.0289 257.7840 0009902 350.1070  25.5105 14.36957527251775
ORBCOMM FM35 [+]        
1 25985U 99065F   23312.79603918  .00001814  00000+0  68676-3 0  9991
2 25985  45.0411 344.0561 0003893 313.4403  46.6121 14.34510285250516
ORBCOMM FM34 [-]        
1 25986U 99065G   23312.83066800  .00001916  00000+0  72347-3 0  9993
2 25986  45.0406 344.3754 0005575 277.6868  82.3346 14.34462115250630
ORBCOMM FM38 [-]        
1 33060U 08031A   23313.01963396  .00003298  00000+0  49903-3 0  9992
2 33060  48.4409 217.1359 0005281  48.0517 312.0846 14.76375485827991
ORBCOMM FM41 [-]        
1 33061U 08031B   23312.92035678  .00003291  00000+0  50070-3 0  9995
2 33061  48.4445 223.8118 0004482  32.5978  87.6286 14.76135121827499
ORBCOMM FM29 [-]        
1 33062U 08031C   23313.08034613  .00003312  00000+0  50508-3 0  9992
2 33062  48.4397 231.0466 0006417  32.0164 341.7670 14.76017223827825
ORBCOMM FM39 [-]        
1 33063U 08031D   23312.25129297  .00003787  00000+0  58459-3 0  9993
2 33063  48.4406 254.1967 0007539   4.1578 355.9397 14.75154865827022
